satname,norad_id,inclination_deg,eccentricity,mean_motion_rev_per_day,perigee_km,apogee_km,l1,l2
STARLINK-1296,45412,53.1605,0.0002519,15.34035442,462.06351733291194,465.5104786430993,1 45412U 20019BE  26111.22955110  .00054389  00000+0  16278-2 0  9998,2 45412  53.1605 291.1087 0002519 247.0358 113.0379 15.34035442336492
STARLINK-1309,45414,53.0639,0.000511,15.63208203,374.9442743165482,381.84945192465784,1 45414U 20019BG  26111.83337754  .00080880  00000+0  86447-3 0  9996,2 45414  53.0639 273.8163 0005110 224.1676 135.8930 15.63208203336765
STARLINK-1316,45415,53.1581,0.0002915,15.34271049,461.0923199370318,465.08075325886693,1 45415U 20019BH  26111.66368394  .00038648  00000+0  11537-2 0  9994,2 45415  53.1581 289.1101 0002915 252.3375 107.7309 15.34271049336588
STARLINK-1286,45417,53.0481,0.0002646,15.54356656,402.228836339792,405.8179556213445,1 45417U 20019BK  26111.86305465  .00039312  00000+0  59389-3 0  9995,2 45417  53.0481 282.7276 0002646 197.8389 162.2528 15.54356656336937
STARLINK-1308,45419,53.0501,0.0005329,15.58438908,388.566635893656,395.78243392756394,1 45419U 20019BM  26111.81779945  .00063216  00000+0  81452-3 0  9996,2 45419  53.0501 303.7092 0005329 208.0706 152.0019 15.58438908336387
STARLINK-1329,45531,53.0426,0.000217,15.67687832,364.0562670207246,366.9830140027061,1 45531U 20025A   26111.65824195  .00047226  00000+0  42625-3 0  9990,2 45531  53.0426 230.8990 0002170 356.2447   3.8552 15.67687832332174
STARLINK-1338,45532,53.0457,0.0001327,15.6241568,379.7845737153648,381.57836413701716,1 45532U 20025B   26111.66511906  .00075967  00000+0  83869-3 0  9993,2 45532  53.0457 235.8273 0001327 300.4596  59.6286 15.62415680332108
STARLINK-1350,45535,53.0701,6.63e-05,15.37167587,454.03672955261754,454.9427358573748,1 45535U 20025E   26111.91114566  .00008851  00000+0  24993-3 0  9996,2 45535  53.0701 189.9829 0000663  87.9644 272.1435 15.37167587332809
STARLINK-1362,45538,53.162,0.0002424,15.32750736,465.9501863705045,469.2690043199282,1 45538U 20025H   26111.73391995 -.00163979  00000+0 -52132-2 0  9992,2 45538  53.1620 260.7398 0002424  68.4885 291.6376 15.32750736331774
STARLINK-1368,45540,53.1597,9.46e-05,15.33206704,465.6047883217443,466.89974677116425,1 45540U 20025K   26111.74770766  .00032345  00000+0  10013-2 0  9995,2 45540  53.1597 261.0475 0000946  33.6546 326.4516 15.33206704331769
STARLINK-1371,45542,53.048,0.0003397,15.54112039,402.4309096905108,407.0391929621819,1 45542U 20025M   26111.09161323  .00084961  00000+0  12791-2 0  9994,2 45542  53.0480 245.7430 0003397 309.6965  50.3745 15.54112039331919
STARLINK-1372,45543,53.1608,0.0001182,15.33573973,464.35059082119824,465.9683461063423,1 45543U 20025N   26111.65607350  .00023233  00000+0  71498-3 0  9997,2 45543  53.1608 261.1364 0001182  23.6374 336.4682 15.33573973330853
STARLINK-1373,45544,53.0455,0.0002609,15.5848603,390.27172523328863,393.80440258163526,1 45544U 20025P   26111.63851141  .00084676  00000+0  10844-2 0  9990,2 45544  53.0455 241.4101 0002609 275.2123  84.8590 15.58486030332022
STARLINK-1327,45555,53.0434,0.0004063,15.61099725,381.73159019899595,387.2268921565774,1 45555U 20025AA  26111.63761255  .00088127  00000+0  10209-2 0  9998,2 45555  53.0434 218.0978 0004063 267.0236  93.0311 15.61099725332346
STARLINK-1356,45564,53.048,0.0002335,15.51423034,410.9847704464255,414.1560308025173,1 45564U 20025AK  26111.65844500  .00051954  00000+0  86845-3 0  9993,2 45564  53.0480 228.2158 0002335 263.8787  96.1956 15.51423034332202
STARLINK-1357,45565,53.0449,0.0006971,15.64560964,369.79445137152743,379.20898026912346,1 45565U 20025AL  26111.50359933  .00046276  00000+0  47309-3 0  9992,2 45565  53.0449 189.3894 0006971 331.2204  28.8424 15.64560964332745
STARLINK-1361,45567,53.0465,0.0001625,15.54719811,401.8652970930725,404.0691559666948,1 45567U 20025AN  26111.78860418  .00075802  00000+0  11184-2 0  9997,2 45567  53.0465 226.6758 0001625 205.7531 154.3398 15.54719811332244
STARLINK-1363,45568,53.0345,0.0002598,15.89817613,301.058071466854,304.52948309873136,1 45568U 20025AP  26112.00002315  .00159056  00000+0  51626-3 0  9998,2 45568  53.0345 179.4311 0002598   6.7985 285.4799 15.89817613  6026
STARLINK-1366,45569,53.0357,0.0002266,15.87097952,308.9082944783977,311.93955028842083,1 45569U 20025AQ  26112.00002315  .00174689  00000+0  64783-3 0  9996,2 45569  53.0357 180.7024 0002266 332.2133 355.0422 15.87097952  6021
STARLINK-1376,45570,53.1571,0.0003073,15.34093134,461.51299212823596,465.7179331917878,1 45570U 20025AR  26111.83969644  .00043144  00000+0  12931-2 0  9993,2 45570  53.1571 236.8076 0003073 321.4719  38.6063 15.34093134332116
STARLINK-1320,45572,53.0442,0.0002666,15.75981803,340.04725189408146,343.63034298927687,1 45572U 20025AT  26111.32881155  .00087743  00000+0  55229-3 0  9990,2 45572  53.0442 134.1575 0002666 114.5442 245.5855 15.75981803333516
STARLINK-1321,45573,53.0448,0.0004057,15.55896692,396.79760179636924,402.2970148441391,1 45573U 20025AU  26111.57525286  .00064895  00000+0  91904-3 0  9991,2 45573  53.0448 212.0007 0004057 316.7030  43.3661 15.55896692332128
STARLINK-1331,45578,53.0486,0.0005481,15.55518661,396.9299141821275,404.3608154104177,1 45578U 20025AZ  26111.78087771  .00076432  00000+0  10945-2 0  9996,2 45578  53.0486 217.7634 0005481 294.4620  65.5818 15.55518661332376
STARLINK-1333,45580,53.1576,0.000131,15.31196952,471.3425662848422,473.1373650498472,1 45580U 20025BB  26111.66571707  .00037659  00000+0  12384-2 0  9990,2 45580  53.1576 238.1374 0001310  33.7570 326.3514 15.31196952332081
STARLINK-1335,45581,53.1577,0.0001595,15.32661031,466.78476967153983,468.9686480446662,1 45581U 20025BC  26111.61288759  .00010323  00000+0  33386-3 0  9993,2 45581  53.1577 235.6344 0001595  17.2156 342.8899 15.32661031332102
STARLINK-1337,45582,53.0486,0.00061,15.66694925,364.25320660775014,372.48394340926006,1 45582U 20025BD  26111.73613150  .00100315  00000+0  92987-3 0  9997,2 45582  53.0486 211.3521 0006100 307.0921  52.9536 15.66694925332445
STARLINK-1347,45586,53.0394,0.0004386,15.63048146,375.8944857481847,381.82172185323907,1 45586U 20025BH  26111.89853519  .00087227  00000+0  93710-3 0  9994,2 45586  53.0394 179.3969 0004386 346.9925  13.0975 15.63048146332907
STARLINK-1364,45589,53.0434,0.0004062,15.57018857,393.538630806147,399.04217562852045,1 45589U 20025BL  26111.27962868  .00080514  00000+0  10901-2 0  9999,2 45589  53.0434 217.7816 0004062 256.9685 103.0873 15.57018857332318
STARLINK-1365,45590,53.0472,0.000323,15.52043632,408.5672510252725,412.9528785291186,1 45590U 20025BM  26111.64605389  .00085654  00000+0  13894-2 0  9998,2 45590  53.0472 247.8038 0003230 260.0124 100.0521 15.52043632331941
STARLINK-1443,45660,53.1355,0.0002116,15.28912466,477.61112812527426,480.51309478924395,1 45660U 20035D   26111.64883746  .00047178  00000+0  16592-2 0  9999,2 45660  53.1355 226.2041 0002116 298.2526  61.8260 15.28912466325328
STARLINK-1446,45663,53.0219,0.0004016,15.44787977,429.26617954470566,434.7360824915395,1 45663U 20035G   26111.40795532  .00032282  00000+0  68471-3 0  9995,2 45663  53.0219 156.1675 0004016  41.8705 318.2606 15.44787977326278
STARLINK-1448,45665,53.0454,0.0006006,15.61569336,379.0625451216174,387.1841710637582,1 45665U 20035J   26111.72128314  .00095078  00000+0  10799-2 0  9991,2 45665  53.0454 204.0550 0006006 296.2371  63.8024 15.61569336325623
STARLINK-1451,45668,53.0509,5.2e-05,15.12207532,529.1101016300117,529.8284926849155,1 45668U 20035M   26111.60293529  .00025180  00000+0  14534-2 0  9990,2 45668  53.0509 231.9742 0000520  35.1416 324.9610 15.12207532325236
STARLINK-1452,45669,53.0269,0.0001209,15.51197904,412.4063459162835,414.04849783349255,1 45669U 20035N   26111.47680783  .00057880  00000+0  97372-3 0  9992,2 45669  53.0269 176.8493 0001209 289.8990  70.1887 15.51197904325993
STARLINK-1453,45670,53.0415,0.0003002,15.62037953,379.7416978091942,383.80034658572185,1 45670U 20035P   26111.44591052  .00100107  00000+0  11162-2 0  9994,2 45670  53.0415 165.8560 0003002  16.0928 344.0180 15.62037953326039
STARLINK-1454,45671,53.0456,0.0004272,15.59494293,386.22868734597705,392.01063143576084,1 45671U 20035Q   26111.60457327  .00048819  00000+0  60707-3 0  9990,2 45671  53.0456 205.2004 0004272 278.0708  81.9819 15.59494293325599
STARLINK-1456,45673,53.0456,0.0006206,15.57574656,390.4755240210352,398.8819429094119,1 45673U 20035S   26111.52266309  .00061415  00000+0  81758-3 0  9997,2 45673  53.0456 199.6233 0006206 341.1398  18.9382 15.57574656325682
STARLINK-1457,45674,53.0383,0.0004905,15.94378775,286.77518221650644,293.31666966685407,1 45674U 20035T   26112.00002315  .00320030  51025-4  83844-3 0  9994,2 45674  53.0383 163.1760 0004905 356.5221 225.2157 15.94378775  6035
STARLINK-1458,45675,53.0488,0.0005466,15.49370933,414.85007581692935,422.2802306108224,1 45675U 20035U   26111.60015180  .00069887  00000+0  12500-2 0  9996,2 45675  53.0488 210.8044 0005466 288.7031  71.3383 15.49370933325498
STARLINK-1460,45676,53.1622,0.0002859,15.31058531,470.69420771171735,474.6114893471049,1 45676U 20035V   26111.63704136 -.00056483  00000+0 -18587-2 0  9997,2 45676  53.1622 225.4105 0002859  35.8947 324.2246 15.31058531325294
STARLINK-1392,45677,53.1543,0.0001072,15.34007464,463.13672553286415,464.6036518741221,1 45677U 20035W   26111.55514411  .00042584  00000+0  12801-2 0  9992,2 45677  53.1543 225.4905 0001072  44.8650 315.2439 15.34007464325322
STARLINK-1394,45679,53.0447,0.0007513,15.57544093,389.67885013169143,399.85581618269225,1 45679U 20035Y   26111.90480941  .00069635  00000+0  92589-3 0  9991,2 45679  53.0447 187.9914 0007513 343.2695  16.8067 15.57544093325879
STARLINK-1402,45685,53.0435,0.0007597,15.51561949,407.0064767295571,417.32366169351644,1 45685U 20035AE  26111.45075728  .00091252  00000+0  15031-2 0  9997,2 45685  53.0435 178.7043 0007597   6.9879 353.1234 15.51561949325970
